{
  "links" : {
    "next" : "https://api.nasa.gov/neo/rest/v1/neo/browse?page=50&size=20&api_key=jqAGvNAwUIBu4fl9FSOjdm3V4F7hIglRzI6pdX9d",
    "prev" : "https://api.nasa.gov/neo/rest/v1/neo/browse?page=48&size=20&api_key=jqAGvNAwUIBu4fl9FSOjdm3V4F7hIglRzI6pdX9d",
    "self" : "https://api.nasa.gov/neo/rest/v1/neo/browse?page=49&size=20&api_key=jqAGvNAwUIBu4fl9FSOjdm3V4F7hIglRzI6pdX9d"
  },
  "page" : {
    "size" : 20,
    "total_elements" : 20750,
    "total_pages" : 1038,
    "number" : 49
  },
  "near_earth_objects" : [ {
    "links" : {
      "self" : "https://api.nasa.gov/neo/rest/v1/neo/3441126?api_key=jqAGvNAwUIBu4fl9FSOjdm3V4F7hIglRzI6pdX9d"
    },
    "neo_reference_id" : "3441126",
    "name" : "(2008 XA2)",
    "designation" : "2008 XA2",
    "nasa_jpl_url" : "http://ssd.jpl.nasa.gov/sbdb.cgi?sstr=3441126",
    "absolute_magnitude_h" : 21.4,
    "estimated_diameter" : {
      "kilometers" : {
        "estimated_diameter_min" : 0.1394938229,
        "estimated_diameter_max" : 0.3119176705
      },
      "meters" : {
        "estimated_diameter_min" : 139.4938229344,
        "estimated_diameter_max" : 311.9176705226
      },
      "miles" : {
        "estimated_diameter_min" : 0.0866774163,
        "estimated_diameter_max" : 0.1938165949
      },
      "feet" : {
        "estimated_diameter_min" : 457.6569140361,
        "estimated_diameter_max" : 1023.3519701574
      }
    },
    "is_potentially_hazardous_asteroid" : true,
    "close_approach_data" : [ {
      "close_approach_date" : "2008-11-22",
      "epoch_date_close_approach" : 1227340800000,
      "relative_velocity" : {
        "kilometers_per_second" : "13.9601708809",
        "kilometers_per_hour" : "50256.6151713624",
        "miles_per_hour" : "31227.5062435613"
      },
      "miss_distance" : {
        "astronomical" : "0.0800641801",
        "lunar" : "31.1449642181",
        "kilometers" : "11977431",
        "miles" : "7442430.5"
      },
      "orbiting_body" : "Earth"
    } ],
    "orbital_data" : {
      "orbit_id" : "15",
      "orbit_determination_date" : "2017-04-06 09:01:57",
      "first_observation_date" : "2008-12-04",
      "last_observation_date" : "2008-12-30",
      "data_arc_in_days" : 26,
      "observations_used" : 66,
      "orbit_uncertainty" : "7",
      "minimum_orbit_intersection" : ".00758741",
      "jupiter_tisserand_invariant" : "3.253",
      "epoch_osculation" : "2458600.5",
      "eccentricity" : ".611902733876598",
      "semi_major_axis" : "2.382116836054534",
      "inclination" : "2.925154258822031",
      "ascending_node_longitude" : "39.7065461608192",
      "orbital_period" : "1342.897962003709",
      "perihelion_distance" : ".9244930316592926",
      "perihelion_argument" : "334.4324413338866",
      "aphelion_distance" : "3.839740640449774",
      "perihelion_time" : "2458780.241684356147",
      "mean_anomaly" : "311.8153961067414",
      "mean_motion" : ".2680769575842172",
      "equinox" : "J2000",
      "orbit_class" : {
        "orbit_class_type" : "APO",
        "orbit_class_range" : "a (semi-major axis) > 1.0 AU; q (perihelion) < 1.017 AU",
        "orbit_class_description" : "Near-Earth asteroid orbits which cross the Earth’s orbit similar to that of 1862 Apollo"
      }
    },
    "is_sentry_object" : false
  }, {
    "links" : {
      "self" : "https://api.nasa.gov/neo/rest/v1/neo/3441128?api_key=jqAGvNAwUIBu4fl9FSOjdm3V4F7hIglRzI6pdX9d"
    },
    "neo_reference_id" : "3441128",
    "name" : "(2008 XC2)",
    "designation" : "2008 XC2",
    "nasa_jpl_url" : "http://ssd.jpl.nasa.gov/sbdb.cgi?sstr=3441128",
    "absolute_magnitude_h" : 23.4,
    "estimated_diameter" : {
      "kilometers" : {
        "estimated_diameter_min" : 0.0555334912,
        "estimated_diameter_max" : 0.1241766613
      },
      "meters" : {
        "estimated_diameter_min" : 55.5334911581,
        "estimated_diameter_max" : 124.1766612574
      },
      "miles" : {
        "estimated_diameter_min" : 0.0345069009,
        "estimated_diameter_max" : 0.0771597762
      },
      "feet" : {
        "estimated_diameter_min" : 182.1964991311,
        "estimated_diameter_max" : 407.4037573197
      }
    },
    "is_potentially_hazardous_asteroid" : false,
    "close_approach_data" : [ {
      "close_approach_date" : "2008-11-15",
      "epoch_date_close_approach" : 1226736000000,
      "relative_velocity" : {
        "kilometers_per_second" : "7.5666473906",
        "kilometers_per_hour" : "27239.9306060082",
        "miles_per_hour" : "16925.8335479388"
      },
      "miss_distance" : {
        "astronomical" : "0.0592418635",
        "lunar" : "23.045085907",
        "kilometers" : "8862457",
        "miles" : "5506875.5"
      },
      "orbiting_body" : "Earth"
    } ],
    "orbital_data" : {
      "orbit_id" : "8",
      "orbit_determination_date" : "2017-04-06 09:01:56",
      "first_observation_date" : "2008-12-04",
      "last_observation_date" : "2008-12-07",
      "data_arc_in_days" : 3,
      "observations_used" : 18,
      "orbit_uncertainty" : "9",
      "minimum_orbit_intersection" : ".0544977",
      "jupiter_tisserand_invariant" : "3.725",
      "epoch_osculation" : "2454806.5",
      "eccentricity" : ".4869001995697816",
      "semi_major_axis" : "1.959171480164842",
      "inclination" : "4.037291389598224",
      "ascending_node_longitude" : "269.9380585741846",
      "orbital_period" : "1001.629488742778",
      "perihelion_distance" : "1.005250495481156",
      "perihelion_argument" : "122.3450052235937",
      "aphelion_distance" : "2.913092464848528",
      "perihelion_time" : "2454768.967886937158",
      "mean_anomaly" : "13.48957958454529",
      "mean_motion" : ".3594143383816141",
      "equinox" : "J2000",
      "orbit_class" : {
        "orbit_class_type" : "APO",
        "orbit_class_range" : "a (semi-major axis) > 1.0 AU; q (perihelion) < 1.017 AU",
        "orbit_class_description" : "Near-Earth asteroid orbits which cross the Earth’s orbit similar to that of 1862 Apollo"
      }
    },
    "is_sentry_object" : false
  } ]
}